#aV2011  7 18  0  0   .00000000      96 DD+AD WGS84 FIT  NGA
## 1645  86400.00000000   900.00000000 55760  .0000000000000
+   31     2  3  4  5  6  7  8  9 10 11 12 13 14 15 16 17 18
+         19 20 21 22 23 24 25 26 27 28 29 30 31 32  0  0  0
+          0  0  0  0  0  0  0  0  0  0  0  0  0  0  0  0  0
+          0  0  0  0  0  0  0  0  0  0  0  0  0  0  0  0  0
+          0  0  0  0  0  0  0  0  0  0  0  0  0  0  0  0  0
++         0  0  0  0  0  0  0  0  0  0  0  0  0  0  0  0  0
++         0  0  0  0  0  0  0  0  0  0  0  0  0  0  0  0  0
++         0  0  0  0  0  0  0  0  0  0  0  0  0  0  0  0  0
++         0  0  0  0  0  0  0  0  0  0  0  0  0  0  0  0  0
++         0  0  0  0  0  0  0  0  0  0  0  0  0  0  0  0  0
%c cc cc ccc ccc cccc cccc cccc cccc ccccc ccccc ccccc ccccc
%c cc cc ccc ccc cccc cccc cccc cccc ccccc ccccc ccccc ccccc
%f  0.0000000  0.000000000  0.00000000000  0.000000000000000
%f  0.0000000  0.000000000  0.00000000000  0.000000000000000
%i    0    0    0    0      0      0      0      0         0
%i    0    0    0    0      0      0      0      0         0
/*      NGA, ST. LOUIS,MO.                                  
/*   EPHEMERIS COMPUTED FROM  3 DAYS OF DATA                
/* CCCCCCCCCCCCCCCCCCCCCCCCCCCCCCCCCCCCCCCCCCCCCCCCCCCCCCCCC
/* CCCCCCCCCCCCCCCCCCCCCCCCCCCCCCCCCCCCCCCCCCCCCCCCCCCCCCCCC
*  2011  7 18  3 15   .00000000                                                 
P  2  -2419.919491 -17077.590038  20372.519809    347.104404                    
V  2  24148.017707   8828.478603   9809.082704       .018165                    
P  3  -4845.357429  21070.819019 -15649.564496    743.169619                    
V  3 -15694.846655  11592.977153  21364.519991       .050170                    
P  4  13930.203757 -10106.163710  20098.170745    175.312005                    
V  4  23512.294907  11136.009226 -10244.548449       .108979                    
P  5  -1270.971351 -26321.611789   2802.975076   -190.859227                    
V  5   3540.256035   3175.783702  31395.434984      -.055177                    
P  6 -10473.096952  20777.361931 -12434.520437    -35.234975                    
V  6 -14385.401362   8027.402350  25465.587330      -.853048                    
P  7  24901.772806   4679.955432  -8340.930618     18.324478                    
V  7   8829.808286   6058.471721  29530.333206       .014848                    
P  8  21093.444483   -852.374842 -16433.614959      8.542688                    
V  8  17845.315593  10374.275096  21786.838377       .000496                    
P  9 -19372.703189 -15262.761474 -10393.647907     93.407448                    
V  9  12107.509497   3010.728023 -28538.636045       .024139                    
P 10  10128.681831 -17761.670888  16529.158095     -7.090121                    
V 10   4488.045374  21242.519393  20188.020028      -.012192                    
P 11  18935.147351  13673.562061 -13277.947024   -168.998018                    
V 11 -16776.066479   1169.009019 -22953.264878      -.033424                    
P 12 -11775.240012 -19091.185136  14373.760088      9.853972                    
V 12   -241.368607 -18203.063874 -24225.105407       .025192                    
P 13  21300.848802  -1232.040894  15721.625297    260.629189                    
V 13 -16315.528594  11880.095518  22759.485643      -.017413                    
P 14 -21732.159126  15114.129230    796.137951    162.183844                    
V 14  -1924.658083  -1420.383823 -32308.154674       .020911                    
P 15  -8063.716877 -13262.983539 -21537.112224   -115.364378                    
V 15  21756.338838 -16682.827325   2291.978611       .020158                    
P 16    645.289836  26279.594098   2401.250818   -186.106495                    
V 16  -2804.178322  -2820.919920  32115.444453      -.024075                    
P 17  21031.481443 -15976.226370   1308.255134    182.091277                    
V 17   2942.837834   1561.760653 -31869.028644      -.011606                    
P 18 -15645.545756   1046.311004 -21112.089770    147.741483                    
V 18  -3037.890966 -27524.774646    498.897627       .019092                    
P 19   4071.769400  15157.646895 -21393.880575   -163.204584                    
V 19 -23380.235697  13907.512842   5760.793956      -.040999                    
P 20  14129.391374  16427.706399  15257.401982     50.805005                    
V 20    593.802712  19845.548126 -21653.172509       .003573                    
P 21 -24625.989250  -2631.788225  -9950.429825   -158.587632                    
V 21 -10844.462929  -7927.021847  27139.307890      -.025509                    
P 22 -11864.238338  15326.503373 -17934.290357    146.216837                    
V 22  -4502.565277 -22935.930430 -16571.686552      -.005868                    
P 23  14829.281257   7125.065789  20933.035531    291.055342                    
V 23 -20964.218074  16170.106001   8999.336372      -.028697                    
P 24  21293.128129  15051.181360  -5774.540631    407.550406                    
V 24  -7864.608377   -653.710885 -30135.454932       .031650                    
P 25 -15323.776957  -6727.847139  20604.166404      9.575626                    
V 25  -2646.203335 -26084.508202 -10444.731547       .018827                    
P 26   4609.270071 -18084.873433 -19330.398860    -94.382796                    
V 26  20276.358523 -11675.992476  16647.785368      -.120390                    
P 27 -16000.954335 -15793.973805 -13761.698071    285.744584                    
V 27  17829.944098   4884.890798 -24824.237938       .037131                    
P 28  12585.326725 -11386.982171 -19840.307834     52.694177                    
V 28   3265.501863  26213.497230 -12891.450875       .027374                    
P 29 -20797.047117    386.014549  16564.845224    224.067073                    
V 29  16143.972294 -13409.830119  20717.103300       .029565                    
P 30  -4345.507603  23281.665755  11585.366675     24.826784                    
V 30  -4976.489809 -14751.041602  26830.632358       .047893                    
P 31 -10699.719598  11263.476654  21769.108163    112.594305                    
V 31 -24684.214456 -11148.535518  -6216.577024       .058331                    
P 32   8231.113671  23341.711396  10463.204997   -293.668632                    
V 32  -1821.621542  12827.987735 -27502.775338      -.070696                    
EOF
